NORAD_CAT_ID,OBJECT_NAME,OBJECT_TYPE,EPOCH,MEAN_MOTION,ECCENTRICITY,INCLINATION,RA_OF_ASC_NODE,ARG_OF_PERICENTER,MEAN_ANOMALY,BSTAR,MEAN_MOTION_DOT,MEAN_MOTION_DDOT,TLE_LINE0,TLE_LINE1,TLE_LINE2,SEMIMAJOR_AXIS,PERIOD,APOGEE,PERIGEE,DECAYED
55926.0,STARLINK-5921,PAYLOAD,2024-03-03 21:42:05,14.98332832,0.0002842,70.0024,339.7553,272.9024,87.1809,6.5304e-05,6.86e-06,0.0,0 STARLINK-5921,1 55926U 23037N   24063.90423536  .00000686  00000-0  65304-4 0  9991,2 55926  70.0024 339.7553 0002842 272.9024  87.1809 14.98332832 53766,6950.184,96.107,574.024,570.074,0.0
55926.0,STARLINK-5921,PAYLOAD,2024-03-04 04:06:36,14.98353339,0.0002492,70.002,339.0843,251.2003,108.8886,0.00021209,2.44e-05,0.0,0 STARLINK-5921,1 55926U 23037N   24064.17125471  .00002440  00000-0  21209-3 0  9993,2 55926  70.0020 339.0843 0002492 251.2003 108.8886 14.98353339 54149,6950.121,96.106,573.718,570.254,0.0
55926.0,STARLINK-5921,PAYLOAD,2024-03-04 12:07:17,14.98337232,0.0002824,70.0017,338.2412,261.7437,98.3402,6.1947e-05,6.46e-06,0.0,0 STARLINK-5921,1 55926U 23037N   24064.50506467  .00000646  00000-0  61947-4 0  9998,2 55926  70.0017 338.2412 0002824 261.7437  98.3402 14.98337232 53852,6950.171,96.107,573.998,570.073,0.0
55926.0,STARLINK-5921,PAYLOAD,2024-03-04 20:07:58,14.98331997,0.0002775,70.0005,337.3985,263.9443,96.1399,7.9064e-06,1e-08,0.0,0 STARLINK-5921,1 55926U 23037N   24064.83886952  .00000001  00000-0  79064-5 0  9999,2 55926  70.0005 337.3985 0002775 263.9443  96.1399 14.98331997 54247,6950.187,96.107,573.98,570.123,0.0
55926.0,STARLINK-5921,PAYLOAD,2024-03-04 21:44:06,14.9833081,0.0002881,70.0005,337.23,262.5217,97.5615,-8.8957e-06,-1.99e-06,0.0,0 STARLINK-5921,1 55926U 23037N   24064.90563028 -.00000199  00000-0 -88957-5 0  9994,2 55926  70.0005 337.2300 0002881 262.5217  97.5615 14.98330810 53911,6950.19,96.107,574.058,570.053,0.0
55926.0,STARLINK-5921,PAYLOAD,2024-03-05 04:08:38,14.98330976,0.0002982,70.0006,336.5572,263.5466,96.5353,-1.3453e-05,-2.54e-06,0.0,0 STARLINK-5921,1 55926U 23037N   24065.17266989 -.00000254  00000-0 -13453-4 0  9990,2 55926  70.0006 336.5572 0002982 263.5466  96.5353 14.98330976 53959,6950.19,96.107,574.127,569.982,0.0
55926.0,STARLINK-5921,PAYLOAD,2024-03-05 21:46:08,14.98328868,0.0002559,70.0013,334.7054,264.7359,95.3508,-0.00018971,-2.356e-05,0.0,0 STARLINK-5921,1 55926U 23037N   24065.90703797 -.00002356  00000-0 -18971-3 0  9998,2 55926  70.0013 334.7054 0002559 264.7359  95.3508 14.98328868 54403,6950.196,96.107,573.84,570.283,0.0
55926.0,STARLINK-5921,PAYLOAD,2024-03-06 04:10:40,14.98333526,0.0002739,70.0014,334.0327,266.7737,93.3109,-0.00022805,-2.813e-05,0.0,0 STARLINK-5921,1 55926U 23037N   24066.17407572 -.00002813  00000-0 -22805-3 0  9999,2 55926  70.0014 334.0327 0002739 266.7737  93.3109 14.98333526 54101,6950.182,96.107,573.951,570.143,0.0
55926.0,STARLINK-5921,PAYLOAD,2024-03-07 02:36:33,14.98324314,0.0002622,70.0013,331.6773,255.8989,104.1878,2.9282e-05,2.56e-06,0.0,0 STARLINK-5921,1 55926U 23037N   24067.10871558  .00000256  00000-0  29282-4 0  9996,2 55926  70.0013 331.6773 0002622 255.8989 104.1878 14.98324314 54588,6950.21,96.107,573.898,570.253,0.0
55926.0,STARLINK-5921,PAYLOAD,2024-03-07 10:37:13,14.98331906,0.0002693,70.001,330.8347,255.0872,104.9989,-9.7895e-05,-1.261e-05,0.0,0 STARLINK-5921,1 55926U 23037N   24067.44251467 -.00001261  00000-0 -97895-4 0  9998,2 55926  70.0010 330.8347 0002693 255.0872 104.9989 14.98331906 54298,6950.187,96.107,573.924,570.18,0.0
55926.0,STARLINK-5921,PAYLOAD,2024-03-08 02:38:33,14.98327911,0.0002723,70.0005,329.1513,266.8799,93.2048,0.00010057,1.107e-05,0.0,0 STARLINK-5921,1 55926U 23037N   24068.11011491  .00001107  00000-0  10057-3 0  9995,2 55926  70.0005 329.1513 0002723 266.8799  93.2048 14.98327911 54736,6950.199,96.107,573.957,570.172,0.0
55926.0,STARLINK-5921,PAYLOAD,2024-03-08 10:39:14,14.983265,0.0002447,70.0015,328.308,271.443,88.6449,2.0555e-05,1.52e-06,0.0,0 STARLINK-5921,1 55926U 23037N   24068.44391937  .00000152  00000-0  20555-4 0  9991,2 55926  70.0015 328.3080 0002447 271.4430  88.6449 14.98326500 54448,6950.204,96.107,573.769,570.368,0.0
55926.0,STARLINK-5921,PAYLOAD,2024-03-09 02:40:34,14.98331217,0.0002548,70.0013,326.6258,249.2097,110.8789,6.5821e-05,6.93e-06,0.0,0 STARLINK-5921,1 55926U 23037N   24069.11151359  .00000693  00000-0  65821-4 0  9993,2 55926  70.0013 326.6258 0002548 249.2097 110.8789 14.98331217 54882,6950.189,96.107,573.825,570.283,0.0
55926.0,STARLINK-5921,PAYLOAD,2024-03-09 10:41:15,14.98328052,0.0002715,70.0012,325.7835,274.5123,85.5726,8.8157e-05,9.59e-06,0.0,0 STARLINK-5921,1 55926U 23037N   24069.44531580  .00000959  00000-0  88157-4 0  9999,2 55926  70.0012 325.7835 0002715 274.5123  85.5726 14.98328052 54599,6950.199,96.107,573.951,570.177,0.0
55926.0,STARLINK-5921,PAYLOAD,2024-03-10 02:42:34,14.98342701,0.0002862,70.0,324.1011,267.2873,92.7959,9.5885e-05,1.052e-05,0.0,0 STARLINK-5921,1 55926U 23037N   24070.11290208  .00001052  00000-0  95885-4 0  9995,2 55926  70.0000 324.1011 0002862 267.2873  92.7959 14.98342701 55034,6950.154,96.106,574.008,570.029,0.0
55926.0,STARLINK-5921,PAYLOAD,2024-03-10 10:43:15,14.98353624,0.0002401,70.006,323.2582,272.2474,87.841,-0.00047809,-5.796e-05,0.0,0 STARLINK-5921,1 55926U 23037N   24070.44670805 -.00005796  00000-0 -47809-3 0  9999,2 55926  70.0060 323.2582 0002401 272.2474  87.8410 14.98353624 54745,6950.12,96.105,573.654,570.316,0.0
55926.0,STARLINK-5921,PAYLOAD,2024-03-10 20:20:04,14.98324711,0.0002905,69.9992,322.248,263.1164,96.9664,-7.8328e-05,-1.027e-05,0.0,0 STARLINK-5921,1 55926U 23037N   24070.84727762 -.00001027  00000-0 -78328-4 0  9992,2 55926  69.9992 322.2480 0002905 263.1164  96.9664 14.98324711 55148,6950.209,96.107,574.093,570.055,0.0
55926.0,STARLINK-5921,PAYLOAD,2024-03-10 21:56:12,14.98322721,0.000301,70.0003,322.0794,262.5418,97.5399,-5.763e-05,-7.8e-06,0.0,0 STARLINK-5921,1 55926U 23037N   24070.91403827 -.00000780  00000-0 -57630-4 0  9991,2 55926  70.0003 322.0794 0003010 262.5418  97.5399 14.98322721 54817,6950.215,96.107,574.172,569.988,0.0
55926.0,STARLINK-5921,PAYLOAD,2024-03-11 02:44:37,14.98324743,0.0002868,70.0004,321.5767,267.5903,92.4928,-0.00011537,-1.469e-05,0.0,0 STARLINK-5921,1 55926U 23037N   24071.11431994 -.00001469  00000-0 -11537-3 0  9990,2 55926  70.0004 321.5767 0002868 267.5903  92.4928 14.98324743 54847,6950.209,96.107,574.067,570.081,0.0
55926.0,STARLINK-5921,PAYLOAD,2024-03-12 02:46:37,14.98340895,0.0002924,70.0,319.0519,268.5347,91.5478,-0.00010028,-1.29e-05,0.0,0 STARLINK-5921,1 55926U 23037N   24072.11570905 -.00001290  00000-0 -10028-3 0  9993,2 55926  70.0000 319.0519 0002924 268.5347  91.5478 14.98340895 55337,6950.159,96.106,574.056,569.992,0.0
55926.0,STARLINK-5921,PAYLOAD,2024-03-12 09:11:09,14.9835577,0.0003215,69.9999,318.3784,267.9137,92.1654,-0.00043243,-5.252e-05,0.0,0 STARLINK-5921,1 55926U 23037N   24072.38274563 -.00005252  00000-0 -43243-3 0  9990,2 55926  69.9999 318.3784 0003215 267.9137  92.1654 14.98355770 55376,6950.113,96.105,574.213,569.744,0.0
55926.0,STARLINK-5921,PAYLOAD,2024-03-13 02:48:38,14.98329404,0.0002943,69.9998,316.5261,269.5226,90.5595,0.00010068,1.108e-05,0.0,0 STARLINK-5921,1 55926U 23037N   24073.11711084  .00001108  00000-0  10068-3 0  9999,2 55926  69.9998 316.5261 0002943 269.5226  90.5595 14.98329404 55482,6950.195,96.107,574.105,570.014,0.0
55926.0,STARLINK-5921,PAYLOAD,2024-03-13 09:13:10,14.98335194,0.0002772,70.0003,315.852,272.346,87.7382,-5.3984e-05,-7.37e-06,0.0,0 STARLINK-5921,1 55926U 23037N   24073.38415162 -.00000737  00000-0 -53984-4 0  9990,2 55926  70.0003 315.8520 0002772 272.3460  87.7382 14.98335194 55186,6950.177,96.107,573.968,570.115,0.0
55926.0,STARLINK-5921,PAYLOAD,2024-03-13 22:02:15,14.98363979,0.0002646,70.0006,314.506,266.4354,93.6502,-0.00051566,-6.246e-05,0.0,0 STARLINK-5921,1 55926U 23037N   24073.91823160 -.00006246  00000-0 -51566-3 0  9994,2 55926  70.0006 314.5060 0002646 266.4354  93.6502 14.98363979 55261,6950.088,96.105,573.792,570.114,0.0
55926.0,STARLINK-5921,PAYLOAD,2024-03-14 02:50:39,14.98332693,0.0002707,70.0,314.0012,267.7994,92.2855,3.7502e-06,-4.8e-07,0.0,0 STARLINK-5921,1 55926U 23037N   24074.11851140 -.00000048  00000-0  37502-5 0  9995,2 55926  70.0000 314.0012 0002707 267.7994  92.2855 14.98332693 55635,6950.185,96.107,573.931,570.168,0.0
55926.0,STARLINK-5921,PAYLOAD,2024-03-14 09:15:11,14.98369556,0.0002793,69.9997,313.3275,274.2806,85.8034,-0.00068911,-8.314e-05,0.0,0 STARLINK-5921,1 55926U 23037N   24074.38554410 -.00008314  00000-0 -68911-3 0  9995,2 55926  69.9997 313.3275 0002793 274.2806  85.8034 14.98369556 55679,6950.071,96.104,573.877,569.994,0.0
55926.0,STARLINK-5921,PAYLOAD,2024-03-14 20:28:08,14.98330317,0.0002791,69.9998,312.1492,269.5515,90.5324,-9.7932e-06,-2.1e-06,0.0,0 STARLINK-5921,1 55926U 23037N   24074.85287229 -.00000210  00000-0 -97932-5 0  9992,2 55926  69.9998 312.1492 0002791 269.5515  90.5324 14.98330317 55746,6950.192,96.107,573.997,570.117,0.0
55926.0,STARLINK-5921,PAYLOAD,2024-03-14 22:04:16,14.98331319,0.0002789,69.9997,311.9808,269.4924,90.5915,-1.485e-05,-2.7e-06,0.0,0 STARLINK-5921,1 55926U 23037N   24074.91963181 -.00000270  00000-0 -14850-4 0  9990,2 55926  69.9997 311.9808 0002789 269.4924  90.5915 14.98331319 55416,6950.189,96.107,573.992,570.115,0.0
55926.0,STARLINK-5921,PAYLOAD,2024-03-15 22:06:17,14.98328872,0.0002781,69.9995,309.4558,269.4253,90.6587,-3.5992e-06,-1.36e-06,0.0,0 STARLINK-5921,1 55926U 23037N   24075.92103203 -.00000136  00000-0 -35992-5 0  9995,2 55926  69.9995 309.4558 0002781 269.4253  90.6587 14.98328872 55567,6950.196,96.107,573.994,570.129,0.0
55926.0,STARLINK-5921,PAYLOAD,2024-03-16 01:18:33,14.98329748,0.0002782,69.9995,309.1192,269.6718,90.4122,5.4238e-06,-2.8e-07,0.0,0 STARLINK-5921,1 55926U 23037N   24076.05455121 -.00000028  00000-0  54238-5 0  9992,2 55926  69.9995 309.1192 0002782 269.6718  90.4122 14.98329748 55923,6950.194,96.107,573.992,570.125,0.0
